{
  "type": "FeatureCollection",
  "features": [
    {
      "type": "Feature",
      "properties": {
        "norad_id": 30162,
        "name": "FENGYUN 1C DEB",
        "group": "fengyun-1c-debris",
        "lat": -53.094118071671616,
        "lon": -150.00965648019596,
        "alt_km": 1160.6192891720493,
        "timestamp": "2025-12-12T18:57:44.404131+00:00",
        "meta_object_name": "FENGYUN 1C DEB",
        "meta_object_id": "1999-025TT",
        "meta_epoch": "2025-12-12T03:52:57.005760",
        "meta_mean_motion": 13.53393576,
        "meta_eccentricity": 0.03136545,
        "meta_inclination": 99.4886,
        "meta_ra_of_asc_node": 42.2546,
        "meta_arg_of_pericenter": 351.0539,
        "meta_mean_anomaly": 66.5575,
        "meta_ephemeris_type": 0,
        "meta_classification_type": "U",
        "meta_norad_cat_id": 30162,
        "meta_element_set_no": 999,
        "meta_rev_at_epoch": 92653,
        "meta_bstar": 0.0034657804,
        "meta_mean_motion_dot": 3.135e-05,
        "meta_mean_motion_ddot": 0,
        "tle_line1": "1 30162U 99025TT  25346.16177090  .00003135  00000+0  34658-2 0  9997",
        "tle_line2": "2 30162  99.4886  42.2546 0313654 351.0539  66.5575 13.53393576926533"
      },
      "geometry": {
        "type": "Point",
        "coordinates": [
          -150.00965648019596,
          -53.094118071671616
        ]
      }
    },
    {
      "type": "Feature",
      "properties": {
        "norad_id": 30163,
        "name": "FENGYUN 1C DEB",
        "group": "fengyun-1c-debris",
        "lat": -66.53885407438143,
        "lon": -98.78529800426703,
        "alt_km": 850.9010264615854,
        "timestamp": "2025-12-12T18:57:44.404142+00:00",
        "meta_object_name": "FENGYUN 1C DEB",
        "meta_object_id": "1999-025TU",
        "meta_epoch": "2025-12-12T07:15:18.134208",
        "meta_mean_motion": 13.38779349,
        "meta_eccentricity": 0.03735058,
        "meta_inclination": 98.7003,
        "meta_ra_of_asc_node": 101.4542,
        "meta_arg_of_pericenter": 233.5725,
        "meta_mean_anomaly": 183.5818,
        "meta_ephemeris_type": 0,
        "meta_classification_type": "U",
        "meta_norad_cat_id": 30163,
        "meta_element_set_no": 999,
        "meta_rev_at_epoch": 91939,
        "meta_bstar": 0.0032247076,
        "meta_mean_motion_dot": 2.545e-05,
        "meta_mean_motion_ddot": 0,
        "tle_line1": "1 30163U 99025TU  25346.30229322  .00002545  00000+0  32247-2 0  9996",
        "tle_line2": "2 30163  98.7003 101.4542 0373505 233.5725 183.5818 13.38779349919398"
      },
      "geometry": {
        "type": "Point",
        "coordinates": [
          -98.78529800426703,
          -66.53885407438143
        ]
      }
    },
    {
      "type": "Feature",
      "properties": {
        "norad_id": 30167,
        "name": "FENGYUN 1C DEB",
        "group": "fengyun-1c-debris",
        "lat": -35.69331055004251,
        "lon": -114.54943710654887,
        "alt_km": 687.092194513898,
        "timestamp": "2025-12-12T18:57:44.404152+00:00",
        "meta_object_name": "FENGYUN 1C DEB",
        "meta_object_id": "1999-025TY",
        "meta_epoch": "2025-12-11T17:48:16.213248",
        "meta_mean_motion": 14.48533275,
        "meta_eccentricity": 0.01441302,
        "meta_inclination": 98.9675,
        "meta_ra_of_asc_node": 70.8515,
        "meta_arg_of_pericenter": 157.4553,
        "meta_mean_anomaly": 354.0312,
        "meta_ephemeris_type": 0,
        "meta_classification_type": "U",
        "meta_norad_cat_id": 30167,
        "meta_element_set_no": 999,
        "meta_rev_at_epoch": 99344,
        "meta_bstar": 0.00086940058,
        "meta_mean_motion_dot": 3.67e-05,
        "meta_mean_motion_ddot": 0,
        "tle_line1": "1 30167U 99025TY  25345.74185432  .00003670  00000+0  86940-3 0  9990",
        "tle_line2": "2 30167  98.9675  70.8515 0144130 157.4553 354.0312 14.48533275993441"
      },
      "geometry": {
        "type": "Point",
        "coordinates": [
          -114.54943710654887,
          -35.69331055004251
        ]
      }
    },
    {
      "type": "Feature",
      "properties": {
        "norad_id": 30168,
        "name": "FENGYUN 1C DEB",
        "group": "fengyun-1c-debris",
        "lat": -72.266984081314,
        "lon": 83.09996566234418,
        "alt_km": 771.420762881603,
        "timestamp": "2025-12-12T18:57:44.404162+00:00",
        "meta_object_name": "FENGYUN 1C DEB",
        "meta_object_id": "1999-025TZ",
        "meta_epoch": "2025-12-12T04:25:54.180768",
        "meta_mean_motion": 14.5285466,
        "meta_eccentricity": 0.01007276,
        "meta_inclination": 97.39,
        "meta_ra_of_asc_node": 58.6209,
        "meta_arg_of_pericenter": 155.6778,
        "meta_mean_anomaly": 204.9223,
        "meta_ephemeris_type": 0,
        "meta_classification_type": "U",
        "meta_norad_cat_id": 30168,
        "meta_element_set_no": 999,
        "meta_rev_at_epoch": 98303,
        "meta_bstar": 0.0030563807,
        "meta_mean_motion_dot": 0.00013422,
        "meta_mean_motion_ddot": 0,
        "tle_line1": "1 30168U 99025TZ  25346.18465487  .00013422  00000+0  30564-2 0  9997",
        "tle_line2": "2 30168  97.3900  58.6209 0100727 155.6778 204.9223 14.52854660983030"
      },
      "geometry": {
        "type": "Point",
        "coordinates": [
          83.09996566234418,
          -72.266984081314
        ]
      }
    },
    {
      "type": "Feature",
      "properties": {
        "norad_id": 30169,
        "name": "FENGYUN 1C DEB",
        "group": "fengyun-1c-debris",
        "lat": 74.18056810906566,
        "lon": -92.5791308298718,
        "alt_km": 773.1839693288321,
        "timestamp": "2025-12-12T18:57:44.404172+00:00",
        "meta_object_name": "FENGYUN 1C DEB",
        "meta_object_id": "1999-025UA",
        "meta_epoch": "2025-12-12T03:54:22.271328",
        "meta_mean_motion": 14.58060164,
        "meta_eccentricity": 0.02132428,
        "meta_inclination": 98.3365,
        "meta_ra_of_asc_node": 55.6259,
        "meta_arg_of_pericenter": 228.8606,
        "meta_mean_anomaly": 185.657,
        "meta_ephemeris_type": 0,
        "meta_classification_type": "U",
        "meta_norad_cat_id": 30169,
        "meta_element_set_no": 999,
        "meta_rev_at_epoch": 97715,
        "meta_bstar": 0.0035486619,
        "meta_mean_motion_dot": 0.00022369,
        "meta_mean_motion_ddot": 0,
        "tle_line1": "1 30169U 99025UA  25346.16275777  .00022369  00000+0  35487-2 0  9996",
        "tle_line2": "2 30169  98.3365  55.6259 0213242 228.8606 185.6570 14.58060164977159"
      },
      "geometry": {
        "type": "Point",
        "coordinates": [
          -92.5791308298718,
          74.18056810906566
        ]
      }
    },
    {
      "type": "Feature",
      "properties": {
        "norad_id": 30170,
        "name": "FENGYUN 1C DEB",
        "group": "fengyun-1c-debris",
        "lat": 74.16325356767156,
        "lon": -172.8689054012887,
        "alt_km": 940.9351674256468,
        "timestamp": "2025-12-12T18:57:44.404183+00:00",
        "meta_object_name": "FENGYUN 1C DEB",
        "meta_object_id": "1999-025UB",
        "meta_epoch": "2025-12-11T22:01:48.432288",
        "meta_mean_motion": 14.00306357,
        "meta_eccentricity": 0.0076954,
        "meta_inclination": 98.8488,
        "meta_ra_of_asc_node": 332.9775,
        "meta_arg_of_pericenter": 276.9596,
        "meta_mean_anomaly": 112.0248,
        "meta_ephemeris_type": 0,
        "meta_classification_type": "U",
        "meta_norad_cat_id": 30170,
        "meta_element_set_no": 999,
        "meta_rev_at_epoch": 96404,
        "meta_bstar": 0.00068761,
        "meta_mean_motion_dot": 1e-05,
        "meta_mean_motion_ddot": 0,
        "tle_line1": "1 30170U 99025UB  25345.91792167  .00001000  00000+0  68761-3 0  9998",
        "tle_line2": "2 30170  98.8488 332.9775 0076954 276.9596 112.0248 14.00306357964049"
      },
      "geometry": {
        "type": "Point",
        "coordinates": [
          -172.8689054012887,
          74.16325356767156
        ]
      }
    },
    {
      "type": "Feature",
      "properties": {
        "norad_id": 30171,
        "name": "FENGYUN 1C DEB",
        "group": "fengyun-1c-debris",
        "lat": -33.130503434011615,
        "lon": -149.9786474902073,
        "alt_km": 840.3730854127643,
        "timestamp": "2025-12-12T18:57:44.404193+00:00",
        "meta_object_name": "FENGYUN 1C DEB",
        "meta_object_id": "1999-025UC",
        "meta_epoch": "2025-12-12T03:38:57.062112",
        "meta_mean_motion": 13.96857519,
        "meta_eccentricity": 0.01844562,
        "meta_inclination": 98.3977,
        "meta_ra_of_asc_node": 203.9058,
        "meta_arg_of_pericenter": 269.0466,
        "meta_mean_anomaly": 88.9562,
        "meta_ephemeris_type": 0,
        "meta_classification_type": "U",
        "meta_norad_cat_id": 30171,
        "meta_element_set_no": 999,
        "meta_rev_at_epoch": 96262,
        "meta_bstar": 0.00030981569,
        "meta_mean_motion_dot": 4.57e-06,
        "meta_mean_motion_ddot": 0,
        "tle_line1": "1 30171U 99025UC  25346.15204933  .00000457  00000+0  30982-3 0  9994",
        "tle_line2": "2 30171  98.3977 203.9058 0184456 269.0466  88.9562 13.96857519962622"
      },
      "geometry": {
        "type": "Point",
        "coordinates": [
          -149.9786474902073,
          -33.130503434011615
        ]
      }
    }
  ]
}